CCSDS_OMM_VERS = 2.0
CREATION_DATE  = 
ORIGINATOR     = 

OBJECT_NAME    = SOYUZ-MS 28
OBJECT_ID      = 2025-275A
CENTER_NAME    = EARTH
REF_FRAME      = TEME
TIME_SYSTEM    = UTC
MEAN_ELEMENT_THEORY = SGP/SGP4

EPOCH          = 2025-12-28T12:48:20.862720
MEAN_MOTION    = 15.49907133
ECCENTRICITY   = .00032501
INCLINATION    = 51.6321
RA_OF_ASC_NODE = 64.2558
ARG_OF_PERICENTER = 314.4858
MEAN_ANOMALY   = 45.5864

EPHEMERIS_TYPE = 0
CLASSIFICATION_TYPE = U
NORAD_CAT_ID   = 66664
ELEMENT_SET_NO = 999
REV_AT_EPOCH   = 128
BSTAR          = .27889005E-3
MEAN_MOTION_DOT = .15441E-3
MEAN_MOTION_DDOT = 0

CCSDS_OMM_VERS = 2.0
CREATION_DATE  = 
ORIGINATOR     = 

OBJECT_NAME    = 1998-067XS
OBJECT_ID      = 1998-067XS
CENTER_NAME    = EARTH
REF_FRAME      = TEME
TIME_SYSTEM    = UTC
MEAN_ELEMENT_THEORY = SGP/SGP4

EPOCH          = 2025-12-28T04:38:05.811648
MEAN_MOTION    = 15.51427236
ECCENTRICITY   = .0002613
INCLINATION    = 51.6324
RA_OF_ASC_NODE = 65.7333
ARG_OF_PERICENTER = 281.7047
MEAN_ANOMALY   = 78.3649

EPHEMERIS_TYPE = 0
CLASSIFICATION_TYPE = U
NORAD_CAT_ID   = 66906
ELEMENT_SET_NO = 999
REV_AT_EPOCH   = 401
BSTAR          = .58581E-3
MEAN_MOTION_DOT = .34866E-3
MEAN_MOTION_DDOT = 0

CCSDS_OMM_VERS = 2.0
CREATION_DATE  = 
ORIGINATOR     = 

OBJECT_NAME    = 1998-067XT
OBJECT_ID      = 1998-067XT
CENTER_NAME    = EARTH
REF_FRAME      = TEME
TIME_SYSTEM    = UTC
MEAN_ELEMENT_THEORY = SGP/SGP4

EPOCH          = 2025-12-28T10:24:22.543200
MEAN_MOTION    = 15.53480441
ECCENTRICITY   = .0003865
INCLINATION    = 51.6317
RA_OF_ASC_NODE = 64.3388
ARG_OF_PERICENTER = 323.2594
MEAN_ANOMALY   = 36.8131

EPHEMERIS_TYPE = 0
CLASSIFICATION_TYPE = U
NORAD_CAT_ID   = 66907
ELEMENT_SET_NO = 999
REV_AT_EPOCH   = 405
BSTAR          = .12720795E-2
MEAN_MOTION_DOT = .82646E-3
MEAN_MOTION_DDOT = 0

CCSDS_OMM_VERS = 2.0
CREATION_DATE  = 
ORIGINATOR     = 

OBJECT_NAME    = 1998-067XU
OBJECT_ID      = 1998-067XU
CENTER_NAME    = EARTH
REF_FRAME      = TEME
TIME_SYSTEM    = UTC
MEAN_ELEMENT_THEORY = SGP/SGP4

EPOCH          = 2025-12-28T13:27:56.350368
MEAN_MOTION    = 15.53505635
ECCENTRICITY   = .00039327
INCLINATION    = 51.6312
RA_OF_ASC_NODE = 63.6893
ARG_OF_PERICENTER = 320.8494
MEAN_ANOMALY   = 39.2212

EPHEMERIS_TYPE = 0
CLASSIFICATION_TYPE = U
NORAD_CAT_ID   = 66908
ELEMENT_SET_NO = 999
REV_AT_EPOCH   = 407
BSTAR          = .10405026E-2
MEAN_MOTION_DOT = .67446E-3
MEAN_MOTION_DDOT = 0

CCSDS_OMM_VERS = 2.0
CREATION_DATE  = 
ORIGINATOR     = 

OBJECT_NAME    = SILVERSAT
OBJECT_ID      = 1998-067XV
CENTER_NAME    = EARTH
REF_FRAME      = TEME
TIME_SYSTEM    = UTC
MEAN_ELEMENT_THEORY = SGP/SGP4

EPOCH          = 2025-12-28T11:52:02.820576
MEAN_MOTION    = 15.53863382
ECCENTRICITY   = .00039192
INCLINATION    = 51.6306
RA_OF_ASC_NODE = 63.9946
ARG_OF_PERICENTER = 327.2243
MEAN_ANOMALY   = 32.8503

EPHEMERIS_TYPE = 0
CLASSIFICATION_TYPE = U
NORAD_CAT_ID   = 66909
ELEMENT_SET_NO = 999
REV_AT_EPOCH   = 406
BSTAR          = .13227115E-2
MEAN_MOTION_DOT = .87215E-3
MEAN_MOTION_DDOT = 0

CCSDS_OMM_VERS = 2.0
CREATION_DATE  = 
ORIGINATOR     = 

OBJECT_NAME    = 1998-067XW
OBJECT_ID      = 1998-067XW
CENTER_NAME    = EARTH
REF_FRAME      = TEME
TIME_SYSTEM    = UTC
MEAN_ELEMENT_THEORY = SGP/SGP4

EPOCH          = 2025-12-28T10:17:22.357536
MEAN_MOTION    = 15.53717016
ECCENTRICITY   = .00036496
INCLINATION    = 51.6307
RA_OF_ASC_NODE = 64.3052
ARG_OF_PERICENTER = 295.6373
MEAN_ANOMALY   = 64.4240

EPHEMERIS_TYPE = 0
CLASSIFICATION_TYPE = U
NORAD_CAT_ID   = 66910
ELEMENT_SET_NO = 999
REV_AT_EPOCH   = 405
BSTAR          = .12259829E-2
MEAN_MOTION_DOT = .80298E-3
MEAN_MOTION_DDOT = 0

CCSDS_OMM_VERS = 2.0
CREATION_DATE  = 
ORIGINATOR     = 

OBJECT_NAME    = 1998-067XX
OBJECT_ID      = 1998-067XX
CENTER_NAME    = EARTH
REF_FRAME      = TEME
TIME_SYSTEM    = UTC
MEAN_ELEMENT_THEORY = SGP/SGP4

EPOCH          = 2025-12-28T08:37:32.267136
MEAN_MOTION    = 15.54336022
ECCENTRICITY   = .00033803
INCLINATION    = 51.6310
RA_OF_ASC_NODE = 64.5939
ARG_OF_PERICENTER = 306.9816
MEAN_ANOMALY   = 53.0865

EPHEMERIS_TYPE = 0
CLASSIFICATION_TYPE = U
NORAD_CAT_ID   = 66911
ELEMENT_SET_NO = 999
REV_AT_EPOCH   = 403
BSTAR          = .14927535E-2
MEAN_MOTION_DOT = .100367E-2
MEAN_MOTION_DDOT = 0

CCSDS_OMM_VERS = 2.0
CREATION_DATE  = 
ORIGINATOR     = 

OBJECT_NAME    = 1998-067XY
OBJECT_ID      = 1998-067XY
CENTER_NAME    = EARTH
REF_FRAME      = TEME
TIME_SYSTEM    = UTC
MEAN_ELEMENT_THEORY = SGP/SGP4

EPOCH          = 2025-12-28T09:00:38.760768
MEAN_MOTION    = 15.52721713
ECCENTRICITY   = .00038396
INCLINATION    = 51.6317
RA_OF_ASC_NODE = 64.7007
ARG_OF_PERICENTER = 312.2121
MEAN_ANOMALY   = 47.8542

EPHEMERIS_TYPE = 0
CLASSIFICATION_TYPE = U
NORAD_CAT_ID   = 66912
ELEMENT_SET_NO = 999
REV_AT_EPOCH   = 403
BSTAR          = .98999524E-3
MEAN_MOTION_DOT = .62303E-3
MEAN_MOTION_DDOT = 0

